#cP2022  4 11  0  0  0.00000000     576 d+D   IGb14 EXT AIUB
## 2205  86400.00000000   300.00000000 59680 0.0000000000000
+   77   G01G02G03G04G05G06G07G08G09G10G11G12G13G14G15G16G17
+        G18G19G20G21G22G23G24G25G26G27G28G29G30G31G32R01R02
+        R03R04R05R07R08R09R12R13R14R15R17R18R19R20R21R22R24
+        E01E02E03E04E05E07E08E09E10E11E12E13E14E15E18E19E21
+        E24E25E26E27E30E31E33E34E36  0  0  0  0  0  0  0  0
++         6  7  6  7  7  8  7  6  6  5  8  7  7  7  7  7  7
++         8  7  7  7  7  7  7  6  7  6  7  7  6  7  6  7  6
++         6  6  6  6  6  7  8  8  7  8  8  7  8  9  8  8  8
++         5  6  6  6  6  7  6  6  6  6  7  6  6  6  6  6  6
++         6  6  6  6  6  6  6  6  6  0  0  0  0  0  0  0  0
%c M  cc GPS ccc cccc cccc cccc cccc ccccc ccccc ccccc ccccc
%c cc cc ccc ccc cccc cccc cccc cccc ccccc ccccc ccccc ccccc
%f  1.2500000  1.025000000  0.00000000000  0.000000000000000
%f  0.0000000  0.000000000  0.00000000000  0.000000000000000
%i    0    0    0    0      0      0      0      0         0
%i    0    0    0    0      0      0      0      0         0
/* Center for Orbit Determination in Europe (CODE)          
/* Ultra-rapid GRE orbits starting year-day 22101 00 hour   
/* Observed/predicted: 24/24 hours (data used up to 101X)   
/* PCV:IGS14      OL/AL:FES2014b NONE     YN ORB:CoN CLK:BRD
*  2022  4 11  1 30  0.00000000
PG01   5287.270048  13970.737853 -22273.655832    387.881178
PG02  16867.910658 -15162.086298  14592.508432   -653.037632
PG03  11468.245460  22356.918013  -8888.834282   -201.571871
PG04   1352.307539  22819.572495  13459.930668   -176.909103
PG05   2048.605050 -17687.265947  19497.636918    -77.860346
PG06  26003.943456  -5567.102308    877.214613    262.339080
PG07  20842.229915   7287.205510  15505.852818    319.784741
PG08  -5017.145155  25531.992455  -4314.943559    -63.427005
PG09  10044.716207  14521.340347  19765.506905   -344.506146
PG10 -20334.651962  -7064.578611 -15600.820823   -375.203014
PG11  18088.020905 -12800.570957  14631.073503    -42.536121
PG12  -6935.507052 -22866.908285 -11993.162069   -198.477058
PG13  13186.874281 -22821.690838   2268.379184    292.030380
PG14  20348.756219   8269.111028 -14995.590340   -101.562571
PG15   1340.356831 -25906.484861  -5263.955520    -69.896096
PG16  -7715.075231  13852.225279  20952.773695   -490.377110
PG17  16125.089917  -3000.760835 -20475.903433    598.771353
PG18 -20327.079184  -7222.584081  15558.426345    198.548145
PG19  17573.698488  -9634.211131 -17589.706841    142.763372
PG20  10542.357068 -11531.011864  21474.632829    515.884423
PG21  -6365.817493  15917.796646 -19445.566933    160.326695
PG22 -17140.992554  13081.037071 -14977.008551    241.426692
PG23 -20525.750548 -15643.970186  -6502.896574    -13.999304
PG24  -1362.720070 -16024.740796 -21400.788359    258.166488
PG25 -17485.159135 -20194.056250   -372.073084    310.329724
PG26 -16444.329868   4502.154187  20346.842767    197.689496
PG27 -12481.616436  22112.512723   6842.323181    179.959806
PG28  17028.658826    352.017067 -19804.355037    372.474270
PG29  -7448.048656 -16079.768821  19713.958554   -501.673248
PG30  25505.199560   1317.274745   7829.357288   -523.185867
PG31 -25766.316171   6669.565917   3134.374750   -172.883168
PG32 -16578.104497   5990.808170 -19667.419097   -102.847016
PR01  11282.035072   1195.461825  22854.717504      7.699976
PR02   5697.441618 -18638.743862  16539.485437    515.154137
PR03  -2832.293340 -25373.957230    576.837923     54.707436
PR04  -9424.572371 -17892.155835 -15518.944271    136.125821
PR05 -10913.524812   -614.205922 -23031.282631     90.934856
PR07   3221.569468  25278.701033    321.563292     33.725785
PR08   9647.437058  17674.466408  15706.599627    -64.530640
PR09 -10783.154830   7346.083230  21919.250125     49.138257
PR12  22794.601745   3972.195415 -10694.721434     17.858104
PR13  11924.296473  -6365.082382 -21650.547660    -20.694290
PR14  -7261.249215 -13633.526806 -20287.128141     76.380861
PR15 -21131.618499 -12479.816572  -6939.638599     96.921507
PR17   5739.687341 -15340.572948  19548.701464    516.529852
PR18  -9534.563289  -5762.664173  22952.600170    113.150931
PR19 -19759.056422   5547.613192  15143.326025   -184.916882
PR20 -19452.218227  15848.352380  -4445.544176    -68.401177
PR21  -4554.058358  14718.146174 -20338.098566   -292.347632
PR22  10341.504193   5048.476353 -22793.183270   -176.133797
PR24  18702.447849 -16571.857538   5122.981127     88.505991
PE01  17927.675589  22507.616266   6919.977002   -614.006489
PE02 -18042.604083 -22480.241952  -6777.965452    292.035294
PE03  -7711.301390 -22755.930663 -17276.997997   -546.717961
PE04  16703.577985   3531.313555  24191.502281  -1003.883004
PE05   6001.200980 -28984.667858    -58.869298   -192.001347
PE07 -16003.554245  18272.899092 -16912.607147   -657.364855
PE08 -16648.064194  -3045.043675 -24278.595918   -510.243465
PE09  15796.908317 -18481.967045  16881.458344   -480.025306
PE10  28487.423824  -7119.401061  -3763.878412   -505.938252
PE11  25727.515685 -13110.196052   6557.896187   3992.527761
PE12  26673.063237   -120.255548 -12863.620407   4669.025529
PE13 -26007.741809  12818.742761  -5915.529448    427.938405
PE14  -5422.891800  29732.076637  -7598.769848  -1809.718830
PE15 -26571.713947    103.011186  13034.742528    752.420452
PE18  11276.640635 -22680.021542  -1668.854125  -1579.127620
PE19   6002.930418  24414.520362  15632.144206  -2808.656742
PE21   1935.040550  20846.982528  20916.458033   -727.735555
PE24  17110.443005  -6072.836795 -23390.175767   -554.237858
PE25  -1681.379918 -20742.784544 -21051.760620   -569.961117
PE26  -9133.249967  17996.644498 -21647.790418  -1015.994329
PE27 -16187.777799   7160.244909  23724.275403   -273.441898
PE30 -24640.271268 -11550.646849  11652.272637   -420.792450
PE31  24616.095791  10610.113521 -12547.414800   -494.878449
PE33  11486.328411  12597.666107 -24196.443539   -457.728476
PE34 -11703.980136 -12482.118946  24147.224033   -511.418219
PE36  10189.546591 -17918.047964  21251.878838   -357.927267
EOF
